OBJECT_NAME,OBJECT_ID,EPOCH,MEAN_MOTION,ECCENTRICITY,INCLINATION,RA_OF_ASC_NODE,ARG_OF_PERICENTER,MEAN_ANOMALY,EPHEMERIS_TYPE,CLASSIFICATION_TYPE,NORAD_CAT_ID,ELEMENT_SET_NO,REV_AT_EPOCH,BSTAR,MEAN_MOTION_DOT,MEAN_MOTION_DDOT
SL-14 R/B,1990-010B,2026-06-12T18:49:03.461376,14.83643671,.0019474,82.5016,178.0801,351.1616,8.9253,0,U,20466,999,94258,.42126E-4,.372E-5,0
SL-14 R/B,1990-018B,2026-06-12T06:51:34.168032,14.82213108,.00171796,82.5209,134.6889,136.7527,223.5040,0,U,20511,999,93659,.42374132E-4,.362E-5,0
HST,1990-037B,2026-06-12T06:04:57.367200,15.30693075,.00019522,28.4709,114.2921,91.9422,268.1398,0,U,20580,999,78781,.18891564E-3,.6001E-4,0
SL-16 R/B,1990-046B,2026-06-12T20:21:14.010912,14.15024598,.0013713,70.9993,98.0607,168.2556,191.8889,0,U,20625,999,86185,.16026E-3,.263E-5,0
COSMOS 2084,1990-055A,2026-06-12T19:29:38.067360,15.06099095,.0005485,62.7911,11.0236,271.2686,88.7787,0,U,20663,999,95064,.1503E-3,.2006E-4,0
SL-6 R/B(2),1990-055D,2026-06-12T01:30:21.688992,15.03986009,.00398249,62.7826,292.8140,4.4427,355.7018,0,U,20666,999,95238,.11128535E-3,.1362E-4,0
SL-8 R/B,1990-078B,2026-06-12T03:59:00.120768,14.92125732,.03520364,82.9012,166.1809,55.3710,308.0172,0,U,20775,999,82337,.58475528E-3,.20763E-3,0
SL-8 R/B,1991-006B,2026-06-12T20:22:32.716128,13.77505556,.0023514,82.9424,99.2609,126.1087,287.9494,0,U,21088,999,77717,.1174E-4,.27E-6,0
OKEAN-3,1991-039A,2026-06-12T06:51:57.897792,15.05302522,.00144501,82.5159,245.1336,15.9806,344.1874,0,U,21397,999,87926,.14844986E-3,.2155E-4,0
COSMOS 2151,1991-042A,2026-06-12T18:59:55.574880,15.00426149,.0013811,82.4960,351.9234,97.2206,263.0588,0,U,21422,999,87745,.12644E-3,.1619E-4,0
SL-14 R/B,1991-042B,2026-06-12T06:59:29.415552,14.81899605,.00155391,82.4925,131.4868,292.5657,67.3912,0,U,21423,999,86708,.41651354E-4,.353E-5,0
ERS-1,1991-050A,2026-06-12T18:51:36.282240,14.39515146,.0030701,98.7797,184.3762,280.6004,79.1726,0,U,21574,999,82941,.11917E-3,.327E-5,0
ARIANE 40 R/B,1991-050F,2026-06-12T17:59:40.631712,14.42954661,.0004069,98.1876,212.3393,130.6891,229.4653,0,U,21610,999,83270,.9311E-4,.27E-5,0
INTERCOSMOS 25,1991-086A,2026-06-12T05:48:48.332448,12.12190046,.14841939,82.6053,252.8023,273.0702,70.2152,0,U,21819,999,50814,.10506642E-3,.527E-5,0
SL-8 R/B,1992-008B,2026-06-12T20:38:08.867040,13.75975798,.0033592,82.9263,197.0050,227.1177,314.1389,0,U,21876,999,72250,.12855E-3,.14E-5,0
SL-8 R/B,1992-020B,2026-06-12T20:02:10.302144,13.75548389,.0029986,82.9306,83.0900,34.4363,24.9871,0,U,21938,999,71421,.25534E-4,.4E-6,0
USA 81,1992-023A,2026-06-12T19:17:49.773120,14.32397132,.0002783,85.0076,76.5371,88.6964,271.4547,0,U,21949,999,10840,.48589E-4,.151E-5,0
COSMOS 2219,1992-076A,2026-06-12T05:44:08.298816,14.14096469,.00163662,71.0575,180.4164,52.2360,308.0242,0,U,22219,999,73174,.10148943E-3,.146E-5,0
SL-16 R/B,1992-076B,2026-06-12T20:55:34.581792,14.16871128,.0014574,71.0003,347.8720,304.2874,154.4667,0,U,22220,999,73531,-.29069E-5,-.54E-6,0
COSMOS 2221,1992-080A,2026-06-12T19:01:47.256384,14.96523256,.0012956,82.5030,187.9747,228.2346,131.7769,0,U,22236,999,79501,.11596E-3,.1345E-4,0
SL-16 R/B,1992-093B,2026-06-12T07:05:38.068800,14.15463449,.00042332,71.0199,165.6605,196.2935,163.8053,0,U,22285,999,72654,-.10720992E-3,-.257E-5,0
COSMOS 2228,1992-094A,2026-06-12T19:28:29.827776,14.97571928,.0017326,82.5172,146.2340,347.4946,12.5844,0,U,22286,999,79029,.16026E-3,.1902E-4,0
SL-16 R/B,1993-016B,2026-06-12T20:10:24.669120,14.15311314,.0010523,71.0083,15.3372,189.5642,170.5282,0,U,22566,999,71563,.17988E-3,.303E-5,0
COSMOS 2242,1993-024A,2026-06-12T18:27:13.633920,14.96891523,.0015779,82.5179,175.7700,351.6491,8.4467,0,U,22626,999,79461,.14015E-3,.1637E-4,0
SL-16 R/B,1993-059B,2026-06-12T06:24:26.252064,14.17246824,.00150805,70.9885,171.6797,62.4826,297.7828,0,U,22803,999,69293,.15361524E-3,.263E-5,0
ARIANE 40 R/B,1993-061H,2026-06-12T19:20:57.461568,14.32906135,.0010762,98.4818,230.7541,9.4817,350.6568,0,U,22830,999,70772,.76774E-4,.167E-5,0
COSMOS 2278,1994-023A,2026-06-12T20:41:26.043936,14.14396339,.0010594,71.0547,335.9744,248.1262,111.8734,0,U,23087,999,65826,.1654E-3,.27E-5,0
SL-16 R/B,1994-023B,2026-06-12T07:12:23.065344,14.15021962,.00030897,70.9993,232.1943,191.0839,169.0217,0,U,23088,999,65947,.18676892E-3,.314E-5,0
SL-16 R/B,1994-074B,2026-06-12T20:09:26.285184,14.79498836,.0005078,97.6992,190.7418,271.9365,260.9952,0,U,23343,999,70131,.58332E-4,.387E-5,0
SL-16 R/B,1994-077B,2026-06-12T05:52:41.447424,14.15572004,.00027271,70.9806,153.5602,331.0651,29.0320,0,U,23405,999,62961,-.56308672E-4,-.158E-5,0
ARIANE 40+ R/B,1995-021B,2026-06-12T19:48:28.074816,14.39831046,.0006139,98.4410,233.9631,207.2984,265.8170,0,U,23561,999,63293,.85741E-4,.226E-5,0
