{"fetched_at":"2026-06-13T17:21:47Z","count":1672,"tles":[{"name":"ARIANE 40+ R/B","line1":"1 23561U 95021B   26163.82532494  .00000226  00000+0  85741-4 0  9997","line2":"2 23561  98.4410 233.9631 0006139 207.2984 265.8170 14.39831046632934","category":"Other"},{"name":"SL-16 R/B","line1":"1 23405U 94077B   26163.24492416 -.00000158  00000+0 -56309-4 0  9993","line2":"2 23405  70.9806 153.5602 0002727 331.0651  29.0320 14.15572004629614","category":"Other"},{"name":"SL-16 R/B","line1":"1 22285U 92093B   26163.29557950 -.00000257  00000+0 -10721-3 0  9991","line2":"2 22285  71.0199 165.6605 0004233 196.2935 163.8053 14.15463449726545","category":"Other"},{"name":"COSMOS 2221","line1":"1 22236U 92080A   26163.79290806  .00001345  00000+0  11596-3 0  9990","line2":"2 22236  82.5030 187.9747 0012956 228.2346 131.7769 14.96523256795017","category":"Other"},{"name":"COSMOS 2151","line1":"1 21422U 91042A   26163.79161545  .00001619  00000+0  12644-3 0  9999","line2":"2 21422  82.4960 351.9234 0013811  97.2206 263.0588 15.00426149877454","category":"Other"},{"name":"COSMOS 2278","line1":"1 23087U 94023A   26163.86210699  .00000270  00000+0  16540-3 0  9994","line2":"2 23087  71.0547 335.9744 0010594 248.1262 111.8734 14.14396339658260","category":"Other"},{"name":"COSMOS 2242","line1":"1 22626U 93024A   26163.76890780  .00001637  00000+0  14015-3 0  9999","line2":"2 22626  82.5179 175.7700 0015779 351.6491   8.4467 14.96891523794611","category":"Other"},{"name":"OKEAN-3","line1":"1 21397U 91039A   26163.28608678  .00002155  00000+0  14845-3 0  9994","line2":"2 21397  82.5159 245.1336 0014450  15.9806 344.1874 15.05302522879269","category":"Other"},{"name":"SL-16 R/B","line1":"1 22220U 92076B   26163.87192803 -.00000054  00000+0 -29069-5 0  9999","line2":"2 22220  71.0003 347.8720 0014574 304.2874 154.4667 14.16871128735312","category":"Other"},{"name":"SL-8 R/B","line1":"1 21938U 92020B   26163.83484146  .00000040  00000+0  25534-4 0  9998","line2":"2 21938  82.9306  83.0900 0029986  34.4363  24.9871 13.75548389714219","category":"Other"},{"name":"SL-6 R/B(2)","line1":"1 20666U 90055D   26163.06275103  .00001362  00000+0  11129-3 0  9999","line2":"2 20666  62.7826 292.8140 0039824   4.4427 355.7018 15.03986009952383","category":"Other"},{"name":"SL-16 R/B","line1":"1 20625U 90046B   26163.84807883  .00000263  00000+0  16026-3 0  9996","line2":"2 20625  70.9993  98.0607 0013713 168.2556 191.8889 14.15024598861853","category":"Other"},{"name":"INTERCOSMOS 25","line1":"1 21819U 91086A   26163.24222607  .00000527  00000+0  10507-3 0  9997","line2":"2 21819  82.6053 252.8023 1484193 273.0702  70.2152 12.12190046508141","category":"Other"},{"name":"SL-16 R/B","line1":"1 23088U 94023B   26163.30026696  .00000314  00000+0  18677-3 0  9998","line2":"2 23088  70.9993 232.1943 0003089 191.0839 169.0217 14.15021962659473","category":"Other"},{"name":"SL-8 R/B","line1":"1 21876U 92008B   26163.85982485  .00000140  00000+0  12855-3 0  9998","line2":"2 21876  82.9263 197.0050 0033592 227.1177 314.1389 13.75975798722503","category":"Other"},{"name":"COSMOS 2084","line1":"1 20663U 90055A   26163.81224615  .00002006  00000+0  15030-3 0  9992","line2":"2 20663  62.7911  11.0236 0005485 271.2686  88.7787 15.06099095950645","category":"Other"},{"name":"ARIANE 40 R/B","line1":"1 22830U 93061H   26163.80622062  .00000167  00000+0  76774-4 0  9996","line2":"2 22830  98.4818 230.7541 0010762   9.4817 350.6568 14.32906135707722","category":"Other"},{"name":"SL-16 R/B","line1":"1 22566U 93016B   26163.84056330  .00000303  00000+0  17988-3 0  9998","line2":"2 22566  71.0083  15.3372 0010523 189.5642 170.5282 14.15311314715630","category":"Other"},{"name":"SL-14 R/B","line1":"1 20511U 90018B   26163.28581213  .00000362  00000+0  42374-4 0  9999","line2":"2 20511  82.5209 134.6889 0017179 136.7527 223.5040 14.82213108936590","category":"Other"},{"name":"SL-16 R/B","line1":"1 22803U 93059B   26163.26697051  .00000263  00000+0  15362-3 0  9995","line2":"2 22803  70.9885 171.6797 0015080  62.4826 297.7828 14.17246824692935","category":"Other"},{"name":"SL-14 R/B","line1":"1 20466U 90010B   26163.78406784  .00000372  00000+0  42126-4 0  9990","line2":"2 20466  82.5016 178.0801 0019474 351.1616   8.9253 14.83643671942583","category":"Other"},{"name":"SL-8 R/B","line1":"1 20775U 90078B   26163.16597362  .00020763  00000+0  58476-3 0  9992","line2":"2 20775  82.9012 166.1809 0352036  55.3710 308.0172 14.92125732823376","category":"Other"},{"name":"ERS-1","line1":"1 21574U 91050A   26163.78583660  .00000327  00000+0  11917-3 0  9998","line2":"2 21574  98.7797 184.3762 0030701 280.6004  79.1726 14.39515146829415","category":"Other"},{"name":"SL-16 R/B","line1":"1 23343U 94074B   26163.83988756  .00000387  00000+0  58332-4 0  9993","line2":"2 23343  97.6992 190.7418 0005078 271.9365 260.9952 14.79498836701316","category":"Other"},{"name":"COSMOS 2219","line1":"1 22219U 92076A   26163.23898494  .00000146  00000+0  10149-3 0  9993","line2":"2 22219  71.0575 180.4164 0016366  52.2360 308.0242 14.14096469731742","category":"Other"},{"name":"SL-14 R/B","line1":"1 21423U 91042B   26163.29131268  .00000353  00000+0  41651-4 0  9999","line2":"2 21423  82.4925 131.4868 0015539 292.5657  67.3912 14.81899605867082","category":"Other"},{"name":"COSMOS 2228","line1":"1 22286U 92094A   26163.81145634  .00001902  00000+0  16026-3 0  9993","line2":"2 22286  82.5172 146.2340 0017326 347.4946  12.5844 14.97571928790297","category":"Other"},{"name":"ARIANE 40 R/B","line1":"1 21610U 91050F   26163.74977583  .00000270  00000+0  93110-4 0  9999","line2":"2 21610  98.1876 212.3393 0004069 130.6891 229.4653 14.42954661832704","category":"Other"},{"name":"USA 81","line1":"1 21949U 92023A   26163.80404830  .00000151  00000+0  48589-4 0  9990","line2":"2 21949  85.0076  76.5371 0002783  88.6964 271.4547 14.32397132108401","category":"Military"},{"name":"SL-8 R/B","line1":"1 21088U 91006B   26163.84898977  .00000027  00000+0  11740-4 0  9998","line2":"2 21088  82.9424  99.2609 0023514 126.1087 287.9494 13.77505556777171","category":"Other"},{"name":"HST","line1":"1 20580U 90037B   26163.25344175  .00006001  00000+0  18892-3 0  9990","line2":"2 20580  28.4709 114.2921 0001952  91.9422 268.1398 15.30693075787818","category":"Other"}]}